ONEWEB-0674             
1 55833U 23029AP  25285.87389005 -.00000242  00000+0 -68754-3 0  9994
2 55833  87.9044 338.9983 0001380  96.2014 263.9273 13.14503497126924
ONEWEB-0675             
1 55834U 23029AQ  25285.43794985  .00000110  00000+0  24299-3 0  9992
2 55834  87.9266 354.2773 0002174  99.4010 260.7369 13.19723924126242
ONEWEB-0720             
1 55835U 23029AR  25285.88495434  .00000033  00000+0  49108-4 0  9990
2 55835  87.9265 354.1857 0001844 112.4910 247.6419 13.19724903126228
ONEWEB-0537             
1 56046U 23043A   25285.97645657  .00002876  00000+0  74853-2 0  9995
2 56046  87.8990 278.0197 0002024  87.6151 272.5212 13.16620468126438
ONEWEB-0538             
1 56047U 23043B   25285.51417369  .00000070  00000+0  14945-3 0  9994
2 56047  87.8970 278.1210 0002101  93.8523 266.2848 13.16593603126381
ONEWEB-0546             
1 56048U 23043C   25285.72950355  .00000014  00000+0  22305-5 0  9994
2 56048  87.8981 278.0627 0002423  77.2063 282.9339 13.16593582126406
ONEWEB-0547             
1 56049U 23043D   25285.94911081  .00000117  00000+0  25147-3 0  9991
2 56049  87.9171 293.3054 0001957  95.5377 264.5980 13.21879458125564
ONEWEB-0548             
1 56050U 23043E   25285.67883034  .00000126  00000+0  29478-3 0  9990
2 56050  87.8961 278.0899 0001435  78.1373 281.9919 13.16593292126393
